OBJECT_NAME,OBJECT_ID,EPOCH,MEAN_MOTION,ECCENTRICITY,INCLINATION,RA_OF_ASC_NODE,ARG_OF_PERICENTER,MEAN_ANOMALY,EPHEMERIS_TYPE,CLASSIFICATION_TYPE,NORAD_CAT_ID,ELEMENT_SET_NO,REV_AT_EPOCH,BSTAR,MEAN_MOTION_DOT,MEAN_MOTION_DDOT
ROCK,2024-149G,2026-07-02T04:37:40.073952,15.40115592,.00023224,97.3776,266.6964,156.5652,203.5700,0,U,60474,999,10457,.44186985E-3,.17632E-3,0
CONNECTA IOT-3,2024-149H,2026-07-02T13:13:30.313920,15.23671225,.00027643,97.3731,259.3321,177.7983,182.3267,0,U,60475,999,10414,.21061563E-3,.4982E-4,0
QUBE,2024-149J,2026-07-02T11:57:19.560384,15.47937442,.00028969,97.3778,270.2334,158.4560,201.6812,0,U,60476,999,10483,.47136804E-3,.24532E-3,0
WREN-1,2024-149L,2026-07-02T04:35:18.354624,15.42153801,.00044315,97.3767,267.4668,190.9000,169.2152,0,U,60478,999,10463,.57840332E-3,.24749E-3,0
TOMORROW-S1,2024-149M,2026-07-02T11:27:37.802304,15.32936788,.00030909,97.3747,263.9031,162.1181,198.0171,0,U,60479,999,10443,.28348652E-3,.8943E-4,0
FLOCK 4BE-18,2024-149N,2026-07-02T04:48:15.453504,15.42349063,.00041979,97.3730,267.0907,181.5967,178.5268,0,U,60480,999,10462,.48259058E-3,.20758E-3,0
FLOCK 4BE-7,2024-149P,2026-07-02T11:33:48.344256,15.40958158,.00034232,97.3758,266.6865,182.8376,177.2851,0,U,60481,999,10460,.63629647E-3,.26176E-3,0
TOMORROW-S2,2024-149T,2026-07-02T12:11:03.902784,15.32978255,.00026702,97.3817,264.4369,182.0979,178.0252,0,U,60485,999,10443,.30119491E-3,.9519E-4,0
FLOCK 4BE-36,2024-149U,2026-07-02T11:42:09.244800,15.43180256,.0003753,97.3747,268.1035,189.4293,170.6885,0,U,60486,999,10471,.40073939E-3,.17702E-3,0
FLOCK 4BE-25,2024-149V,2026-07-02T11:56:01.550688,15.39238602,.00027947,97.3799,266.7549,171.3332,188.7962,0,U,60487,999,10459,.41155918E-3,.15948E-3,0
FLOCK 4BE-31,2024-149W,2026-07-02T12:06:15.587712,15.44702027,.00028832,97.3803,269.0235,184.0235,176.0991,0,U,60488,999,10474,.52850436E-3,.24625E-3,0
FLOCK 4BE-20,2024-149X,2026-07-02T11:14:22.666560,15.38503632,.00039011,97.3694,265.5660,188.5776,171.5404,0,U,60489,999,10456,.43801679E-3,.1658E-3,0
FLOCK 4BE-23,2024-149Y,2026-07-02T11:06:04.353696,15.38068347,.00034477,97.3782,265.9451,192.0997,168.0166,0,U,60490,999,10454,.43826954E-3,.16354E-3,0
FLOCK 4BE-17,2024-149AA,2026-07-02T11:46:20.892576,15.40233399,.00034567,97.3773,266.9844,180.7988,179.3254,0,U,60492,999,10461,.46133488E-3,.18488E-3,0
NUSAT-50 (NANCY ROMAN),2024-149AB,2026-07-02T11:20:34.133856,15.30125058,.00045181,97.3789,264.6240,132.4700,227.6923,0,U,60493,999,10446,.37715037E-3,.10926E-3,0
FLOCK 4BE-22,2024-149AC,2026-07-02T04:46:02.087328,15.41626077,.00036958,97.3736,266.9056,192.6264,167.4891,0,U,60494,999,10461,.45653104E-3,.1916E-3,0
FLOCK 4BE-34,2024-149AD,2026-07-02T11:24:50.143968,15.41606469,.00035026,97.3783,268.0170,198.6572,161.4547,0,U,60495,999,10468,.42851597E-3,.17964E-3,0
TYCHE,2024-149AE,2026-07-02T13:06:12.150144,15.25882445,.00022131,97.3754,261.1569,195.9585,164.1584,0,U,60496,999,10424,.21380543E-3,.5406E-4,0
FLOCK 4BE-32,2024-149AF,2026-07-02T11:58:16.270752,15.42686336,.00038709,97.3721,267.5959,195.4897,164.6232,0,U,60497,999,10469,.49300344E-3,.2145E-3,0
NUSAT-48 (HENRIETTA LEAVITT),2024-149AG,2026-07-02T11:04:15.525984,15.30089654,.00031477,97.3998,264.8945,219.7951,140.3059,0,U,60498,999,10447,.11568273E-2,.33728E-3,0
NUSAT-49 (KLARA DAN VON NEUMANN),2024-149AJ,2026-07-02T12:05:35.491200,15.30199581,.00012229,97.3781,264.6870,203.5851,156.5334,0,U,60500,999,10447,.37440794E-3,.10869E-3,0
FLOCK 4BE-11,2024-149AK,2026-07-02T11:38:53.286144,15.43485675,.00038277,97.3701,267.8274,196.2950,163.8176,0,U,60501,999,10471,.43789519E-3,.19556E-3,0
YAM-7,2024-149AN,2026-07-02T11:20:50.905824,15.32028805,.00024194,97.3783,263.6618,215.3637,144.7445,0,U,60504,999,10439,.2758228E-3,.8453E-4,0
FLOCK 4BE-24,2024-149AP,2026-07-02T12:51:06.222816,15.43649432,.0003985,97.3717,268.1400,208.4643,151.6388,0,U,60505,999,10473,.47156639E-3,.21188E-3,0
LUR-1,2024-149AQ,2026-07-02T11:31:36.897888,15.30304821,.00027969,97.3737,262.1993,235.1449,124.9529,0,U,60506,999,10431,.28107626E-3,.8165E-4,0
TANAGER-1,2024-149AR,2026-07-02T12:17:00.032352,15.44477537,.00023307,97.2319,277.7151,253.4701,106.6292,0,U,60507,999,10540,.11461154E-4,.446E-5,0
EAGLEEYE,2024-149AS,2026-07-02T12:11:38.829120,15.73987150,.00050452,97.3722,277.7242,206.9620,153.1383,0,U,60508,999,10534,.89045038E-3,.127978E-2,0
