ROCK                    
1 60474U 24149G   26183.19282493  .00017632  00000+0  44187-3 0  9994
2 60474  97.3776 266.6964 0002322 156.5652 203.5700 15.40115592104577
CONNECTA IOT-3          
1 60475U 24149H   26183.55104530  .00004982  00000+0  21062-3 0  9991
2 60475  97.3731 259.3321 0002764 177.7983 182.3267 15.23671225104143
QUBE                    
1 60476U 24149J   26183.49814306  .00024532  00000+0  47137-3 0  9998
2 60476  97.3778 270.2334 0002896 158.4560 201.6812 15.47937442104833
WREN-1                  
1 60478U 24149L   26183.19118466  .00024749  00000+0  57840-3 0  9993
2 60478  97.3767 267.4668 0004431 190.9000 169.2152 15.42153801104636
TOMORROW-S1             
1 60479U 24149M   26183.47752086  .00008943  00000+0  28349-3 0  9997
2 60479  97.3747 263.9031 0003090 162.1181 198.0171 15.32936788104432
FLOCK 4BE-18            
1 60480U 24149N   26183.20017886  .00020758  00000+0  48259-3 0  9992
2 60480  97.3730 267.0907 0004197 181.5967 178.5268 15.42349063104625
FLOCK 4BE-7             
1 60481U 24149P   26183.48180954  .00026176  00000+0  63630-3 0  9990
2 60481  97.3758 266.6865 0003423 182.8376 177.2851 15.40958158104604
TOMORROW-S2             
1 60485U 24149T   26183.50768406  .00009519  00000+0  30119-3 0  9999
2 60485  97.3817 264.4369 0002670 182.0979 178.0252 15.32978255104439
FLOCK 4BE-36            
1 60486U 24149U   26183.48760700  .00017702  00000+0  40074-3 0  9990
2 60486  97.3747 268.1035 0003753 189.4293 170.6885 15.43180256104715
FLOCK 4BE-25            
1 60487U 24149V   26183.49724017  .00015948  00000+0  41156-3 0  9995
2 60487  97.3799 266.7549 0002794 171.3332 188.7962 15.39238602104591
FLOCK 4BE-31            
1 60488U 24149W   26183.50434708  .00024625  00000+0  52850-3 0  9998
2 60488  97.3803 269.0235 0002883 184.0235 176.0991 15.44702027104740
FLOCK 4BE-20            
1 60489U 24149X   26183.46831790  .00016580  00000+0  43802-3 0  9994
2 60489  97.3694 265.5660 0003901 188.5776 171.5404 15.38503632104566
FLOCK 4BE-23            
1 60490U 24149Y   26183.46255039  .00016354  00000+0  43827-3 0  9998
2 60490  97.3782 265.9451 0003447 192.0997 168.0166 15.38068347104541
FLOCK 4BE-17            
1 60492U 24149AA  26183.49051959  .00018488  00000+0  46133-3 0  9991
2 60492  97.3773 266.9844 0003456 180.7988 179.3254 15.40233399104619
NUSAT-50 (NANCY ROMAN)  
1 60493U 24149AB  26183.47261729  .00010926  00000+0  37715-3 0  9993
2 60493  97.3789 264.6240 0004518 132.4700 227.6923 15.30125058104462
FLOCK 4BE-22            
1 60494U 24149AC  26183.19863527  .00019160  00000+0  45653-3 0  9996
2 60494  97.3736 266.9056 0003695 192.6264 167.4891 15.41626077104614
FLOCK 4BE-34            
1 60495U 24149AD  26183.47558037  .00017964  00000+0  42852-3 0  9993
2 60495  97.3783 268.0170 0003502 198.6572 161.4547 15.41606469104684
TYCHE                   
1 60496U 24149AE  26183.54597396  .00005406  00000+0  21381-3 0  9995
2 60496  97.3754 261.1569 0002213 195.9585 164.1584 15.25882445104246
FLOCK 4BE-32            
1 60497U 24149AF  26183.49879943  .00021450  00000+0  49300-3 0  9999
2 60497  97.3721 267.5959 0003870 195.4897 164.6232 15.42686336104699
NUSAT-48 (HENRIETTA LE*)
1 60498U 24149AG  26183.46129081  .00033728  00000+0  11568-2 0  9993
2 60498  97.3998 264.8945 0003147 219.7951 140.3059 15.30089654104470
NUSAT-49 (KLARA DAN VO*)
1 60500U 24149AJ  26183.50388300  .00010869  00000+0  37441-3 0  9993
2 60500  97.3781 264.6870 0001222 203.5851 156.5334 15.30199581104477
FLOCK 4BE-11            
1 60501U 24149AK  26183.48533896  .00019556  00000+0  43790-3 0  9999
2 60501  97.3701 267.8274 0003827 196.2950 163.8176 15.43485675104712
YAM-7                   
1 60504U 24149AN  26183.47281141  .00008453  00000+0  27582-3 0  9999
2 60504  97.3783 263.6618 0002419 215.3637 144.7445 15.32028805104399
FLOCK 4BE-24            
1 60505U 24149AP  26183.53548869  .00021188  00000+0  47157-3 0  9990
2 60505  97.3717 268.1400 0003985 208.4643 151.6388 15.43649432104733
LUR-1                   
1 60506U 24149AQ  26183.48028817  .00008165  00000+0  28108-3 0  9996
2 60506  97.3737 262.1993 0002796 235.1449 124.9529 15.30304821104317
TANAGER-1               
1 60507U 24149AR  26183.51180593  .00000446  00000+0  11461-4 0  9990
2 60507  97.2319 277.7151 0002330 253.4701 106.6292 15.44477537105404
EAGLEEYE                
1 60508U 24149AS  26183.50808830  .00127978  00000+0  89045-3 0  9993
2 60508  97.3722 277.7242 0005045 206.9620 153.1383 15.73987150105344
